#aV2012  5 25  0  0  0.00000000     288 DD+AD WGS84 FIT  NGA
## 1689 432000.00000000   300.00000000 56072 0.0000000000000
+   31     1  2  3  4  5  6  7  8  9 10 11 12 13 14 15 16 17
+         18 19 20 21 22 23 25 26 27 28 29 30 31 32  0  0  0
+          0  0  0  0  0  0  0  0  0  0  0  0  0  0  0  0  0
+          0  0  0  0  0  0  0  0  0  0  0  0  0  0  0  0  0
+          0  0  0  0  0  0  0  0  0  0  0  0  0  0  0  0  0
++         2  2  2  2  2  2  2  2  2  2  2  2  2  2  2  2  2
++         2  2  2  2  2  2  2  2  2  2  2  2  2  2  2  0  0
++         0  0  0  0  0  0  0  0  0  0  0  0  0  0  0  0  0
++         0  0  0  0  0  0  0  0  0  0  0  0  0  0  0  0  0
++         0  0  0  0  0  0  0  0  0  0  0  0  0  0  0  0  0
%c cc cc ccc ccc cccc cccc cccc cccc ccccc ccccc ccccc ccccc
%c cc cc ccc ccc cccc cccc cccc cccc ccccc ccccc ccccc ccccc
%f  0.0000000  0.000000000  0.00000000000  0.000000000000000
%f  0.0000000  0.000000000  0.00000000000  0.000000000000000
%i    0    0    0    0      0      0      0      0         0
%i    0    0    0    0      0      0      0      0         0
/*      NGA, ST. LOUIS,MO.                                  
/*   EPHEMERIS COMPUTED FROM  1 DAYS OF DATA
/*   EPOCHA SMOOTHER  
/* CCCCCCCCCCCCCCCCCCCCCCCCCCCCCCCCCCCCCCCCCCCCCCCCCCCCCCCCC
*  2012  5 25 14 35  0.00000000                                                 
P  1 -15576.673749    769.352502  21495.920895    258.259033                    
V  1  -7998.391838 -26116.611106  -4826.446500      0.018475                    
P  2  13625.467171  21550.739175  -8183.707480    391.435557                    
V  2    621.643147  10831.391507  28589.062707      0.012983                    
P  3 -21123.337556 -11020.613320 -12490.130222     53.577134                    
V  3  15265.684837  -1507.105688 -25176.660501      0.050451                    
P  4   6207.124330  25496.388288   2519.752438    194.244690                    
V  4  -4727.898200  -2201.807353  31211.607128      0.115415                    
P  5  11979.846127   9749.894407 -21629.784414   -318.822987                    
V  5 -18418.417637  20351.324184   -905.349873     -0.038039                    
P  6 -17592.465321 -13623.591856 -14601.482182     23.689937                    
V  6  18844.006559    530.822418 -22699.751868     -0.027395                    
P  7  -9480.377605  14872.295995 -19755.334236     84.437522                    
V  7  -8389.234539 -23758.751626 -14096.160168      0.034710                    
P  8  -1769.349608  24019.087966 -10444.341676      1.289495                    
V  8  -4666.686065 -12820.819618 -29068.316835      0.000052                    
P  9  15710.849640   4333.775473  20405.739688    160.574804                    
V  9   7709.644392  26034.655332 -11202.511105      0.026278                    
P 10  -4168.434621  20943.634739 -15789.891272    -39.275567                    
V 10 -15375.409581  12702.422111  21641.345415     -0.011798                    
P 11 -19699.532667  -4923.483782  16885.770732   -264.851500                    
V 11  -9972.476588 -20195.242868 -16815.387969     -0.038877                    
P 12  20424.445417  -6126.025632  15701.611272     70.911120                    
V 12 -12602.994132  15602.895224  22662.713971      0.020919                    
P 13 -17054.049940   7797.182581 -18995.563995    205.205294                    
V 13 -22321.887715  -8072.257977  16758.692174     -0.023903                    
P 14  -1243.482954 -15543.408941  21698.217349    203.617051                    
V 14  26105.747678   7116.375285   6506.297306      0.009032                    
P 15  26346.280421   2999.610577   2891.619912    -91.439100                    
V 15   3009.082706   3737.871629 -30994.297755     -0.001152                    
P 16 -11000.500256  -9880.885435 -22064.471642   -236.054589                    
V 16  19744.819903 -19795.753412   -669.028828     -0.012558                    
P 17   -583.328016  15486.051789  21768.000953    126.135902                    
V 17 -26394.618421  -6525.756792   3737.162975     -0.029045                    
P 18  16557.740381 -20415.410560   2324.474134    197.387184                    
V 18   4730.386019    881.376058 -31107.986137      0.018106                    
P 19 -25765.677274  -7188.201081   1194.919911   -268.747753                    
V 19   -736.233342  -2849.967710 -31433.197701     -0.037296                    
P 20 -20823.423251  11178.547349  11896.240933     63.524482                    
V 20   7399.734718 -13931.472758  25767.014505      0.001714                    
P 21   7000.292883 -18861.721320 -16549.281520   -225.969764                    
V 21   9330.642615  20425.384751 -19356.764669     -0.024470                    
P 22   5272.733535 -21639.319471  14558.442523    144.057144                    
V 22  14582.645242 -11447.683740 -22707.980144      0.004213                    
P 23 -24714.458717   1505.631427 -10075.117126    201.880599                    
V 23 -11886.803504  -5052.682867  27937.382048     -0.037246                    
P 25  19337.783507 -17751.768283   3784.419140     34.446353                    
V 25  -1306.108296   5338.735209  31493.675991      0.004964                    
P 26  21149.469835  13470.305919  -9919.826080   -392.005600                    
V 26 -11468.472397  -2026.435715 -28686.021167      0.096616                    
P 27  16897.541509  10280.517153  18574.652918    391.651647                    
V 27   6776.849412  21058.654080 -17959.498793      0.040891                    
P 28  -8484.042903  21373.535618  13645.973532    147.782557                    
V 28 -12911.855502  10369.365436 -25513.843488      0.040288                    
P 29  19746.087877  -6569.935274 -16408.914713    316.631933                    
V 29  19802.287027   7157.579300  20924.206864      0.037815                    
P 30  -3622.690806 -18040.452755 -19511.829732   -199.479779                    
V 30  15287.425684 -18561.173793  14597.725580     -0.210169                    
P 31  -6464.323231 -25579.135097   1690.113231    245.928905                    
V 31   2832.173613   1164.217295  32257.918154      0.040776                    
P 32 -19794.845286   1160.457331  17646.457465   -447.470869                    
V 32  14955.470231 -16539.309023  18550.142802     -0.039667                    
EOF
